[{"OBJECT_NAME":"STARLINK-32196","OBJECT_ID":"2024-144F","EPOCH":"2026-03-09T17:26:05.318880","MEAN_MOTION":15.30184447,"ECCENTRICITY":0.00011849,"INCLINATION":53.1607,"RA_OF_ASC_NODE":217.0433,"ARG_OF_PERICENTER":85.0601,"MEAN_ANOMALY":275.0535,"EPHEMERIS_TYPE":0,"CLASSIFICATION_TYPE":"U","NORAD_CAT_ID":60430,"ELEMENT_SET_NO":999,"REV_AT_EPOCH":8931,"BSTAR":-2.484459e-6,"MEAN_MOTION_DOT":-4.33e-6,"MEAN_MOTION_DDOT":0},{"OBJECT_NAME":"SIMSAT 2","OBJECT_ID":"2000-026B","EPOCH":"2026-03-09T20:25:01.673184","MEAN_MOTION":15.29036787,"ECCENTRICITY":0.00037035,"INCLINATION":86.3514,"RA_OF_ASC_NODE":176.4271,"ARG_OF_PERICENTER":287.9875,"MEAN_ANOMALY":72.0969,"EPHEMERIS_TYPE":0,"CLASSIFICATION_TYPE":"U","NORAD_CAT_ID":26366,"ELEMENT_SET_NO":999,"REV_AT_EPOCH":42803,"BSTAR":0.00013465771,"MEAN_MOTION_DOT":3.833e-5,"MEAN_MOTION_DDOT":0}]
